{
  "type": "FeatureCollection",
  "features": [
    {
      "type": "Feature",
      "properties": {
        "norad_id": 66664,
        "name": "SOYUZ-MS 28",
        "group": "last-30-days",
        "lat": 49.09144383455919,
        "lon": -131.9668778942254,
        "alt_km": 413.59419473984326,
        "timestamp": "2025-12-08T19:31:47.637743+00:00",
        "meta_object_name": "SOYUZ-MS 28",
        "meta_object_id": "2025-275A",
        "meta_epoch": "2025-12-08T05:16:39.559584",
        "meta_mean_motion": 15.49412336,
        "meta_eccentricity": 0.00034318,
        "meta_inclination": 51.6305,
        "meta_ra_of_asc_node": 164.8582,
        "meta_arg_of_pericenter": 219.3069,
        "meta_mean_anomaly": 140.7671,
        "meta_ephemeris_type": 0,
        "meta_classification_type": "U",
        "meta_norad_cat_id": 66664,
        "meta_element_set_no": 999,
        "meta_rev_at_epoch": 128,
        "meta_bstar": 0.00022082399,
        "meta_mean_motion_dot": 0.00011911,
        "meta_mean_motion_ddot": 0,
        "tle_line1": "1 66664U 25275A   25342.21990231  .00011911  00000+0  22082-3 0  9991",
        "tle_line2": "2 66664  51.6305 164.8582 0003431 219.3069 140.7671 15.49412336  1280"
      },
      "geometry": {
        "type": "Point",
        "coordinates": [
          -131.9668778942254,
          49.09144383455919
        ]
      }
    },
    {
      "type": "Feature",
      "properties": {
        "norad_id": 66820,
        "name": "KOMPSAT-7",
        "group": "last-30-days",
        "lat": 56.19907100826449,
        "lon": -82.80684630912718,
        "alt_km": 573.1369219366306,
        "timestamp": "2025-12-08T19:31:47.637754+00:00",
        "meta_object_name": "KOMPSAT-7",
        "meta_object_id": "2025-279A",
        "meta_epoch": "2025-12-08T06:27:15.034464",
        "meta_mean_motion": 14.98366545,
        "meta_eccentricity": 0.00094353,
        "meta_inclination": 97.6399,
        "meta_ra_of_asc_node": 288.226,
        "meta_arg_of_pericenter": 236.9817,
        "meta_mean_anomaly": 123.05,
        "meta_ephemeris_type": 0,
        "meta_classification_type": "U",
        "meta_norad_cat_id": 66820,
        "meta_element_set_no": 999,
        "meta_rev_at_epoch": 98,
        "meta_bstar": 0.00036343676,
        "meta_mean_motion_dot": 4.278e-05,
        "meta_mean_motion_ddot": 0,
        "tle_line1": "1 66820U 25279A   25342.26892401  .00004278  00000+0  36344-3 0  9998",
        "tle_line2": "2 66820  97.6399 288.2260 0009435 236.9817 123.0500 14.98366545   981"
      },
      "geometry": {
        "type": "Point",
        "coordinates": [
          -82.80684630912718,
          56.19907100826449
        ]
      }
    },
    {
      "type": "Feature",
      "properties": {
        "norad_id": 66877,
        "name": "ZQ-3 R/B",
        "group": "last-30-days",
        "lat": -50.88428531672024,
        "lon": 19.407666251714183,
        "alt_km": 577.1110004900938,
        "timestamp": "2025-12-08T19:31:47.637767+00:00",
        "meta_object_name": "ZQ-3 R/B",
        "meta_object_id": "2025-282A",
        "meta_epoch": "2025-12-08T06:36:31.176576",
        "meta_mean_motion": 14.47841574,
        "meta_eccentricity": 0.08275877,
        "meta_inclination": 56.9548,
        "meta_ra_of_asc_node": 74.6198,
        "meta_arg_of_pericenter": 212.298,
        "meta_mean_anomaly": 142.4714,
        "meta_ephemeris_type": 0,
        "meta_classification_type": "U",
        "meta_norad_cat_id": 66877,
        "meta_element_set_no": 999,
        "meta_rev_at_epoch": 74,
        "meta_bstar": 0.00025872655,
        "meta_mean_motion_dot": 0.01210775,
        "meta_mean_motion_ddot": 7.293187e-06,
        "tle_line1": "1 66877U 25282A   25342.27536084  .01210775  72932-5  25873-3 0  9993",
        "tle_line2": "2 66877  56.9548  74.6198 0827587 212.2980 142.4714 14.47841574   748"
      },
      "geometry": {
        "type": "Point",
        "coordinates": [
          19.407666251714183,
          -50.88428531672024
        ]
      }
    },
    {
      "type": "Feature",
      "properties": {
        "norad_id": 66906,
        "name": "1998-067XS",
        "group": "last-30-days",
        "lat": 51.597606635928365,
        "lon": -106.42037069790103,
        "alt_km": 409.0040782176484,
        "timestamp": "2025-12-08T19:31:47.637776+00:00",
        "meta_object_name": "1998-067XS",
        "meta_object_id": "1998-067XS",
        "meta_epoch": "2025-12-07T18:23:05.277120",
        "meta_mean_motion": 15.50202047,
        "meta_eccentricity": 0.00041027,
        "meta_inclination": 51.6298,
        "meta_ra_of_asc_node": 167.0779,
        "meta_arg_of_pericenter": 180.8323,
        "meta_mean_anomaly": 179.266,
        "meta_ephemeris_type": 0,
        "meta_classification_type": "U",
        "meta_norad_cat_id": 66906,
        "meta_element_set_no": 999,
        "meta_rev_at_epoch": 84,
        "meta_bstar": 0.00058960248,
        "meta_mean_motion_dot": 0.00033584,
        "meta_mean_motion_ddot": 0,
        "tle_line1": "1 66906U 98067XS  25341.76603330  .00033584  00000+0  58960-3 0  9993",
        "tle_line2": "2 66906  51.6298 167.0779 0004102 180.8323 179.2660 15.50202047   848"
      },
      "geometry": {
        "type": "Point",
        "coordinates": [
          -106.42037069790103,
          51.597606635928365
        ]
      }
    },
    {
      "type": "Feature",
      "properties": {
        "norad_id": 66907,
        "name": "1998-067XT",
        "group": "last-30-days",
        "lat": 51.1301448708335,
        "lon": -97.53951486611648,
        "alt_km": 408.43191227716125,
        "timestamp": "2025-12-08T19:31:47.637786+00:00",
        "meta_object_name": "1998-067XT",
        "meta_object_id": "1998-067XT",
        "meta_epoch": "2025-12-08T05:11:42.536256",
        "meta_mean_motion": 15.50682978,
        "meta_eccentricity": 0.00049888,
        "meta_inclination": 51.63,
        "meta_ra_of_asc_node": 164.8361,
        "meta_arg_of_pericenter": 200.9093,
        "meta_mean_anomaly": 159.1692,
        "meta_ephemeris_type": 0,
        "meta_classification_type": "U",
        "meta_norad_cat_id": 66907,
        "meta_element_set_no": 999,
        "meta_rev_at_epoch": 91,
        "meta_bstar": 0.0010938546,
        "meta_mean_motion_dot": 0.00064041,
        "meta_mean_motion_ddot": 0,
        "tle_line1": "1 66907U 98067XT  25342.21646454  .00064041  00000+0  10939-2 0  9994",
        "tle_line2": "2 66907  51.6300 164.8361 0004988 200.9093 159.1692 15.50682978   910"
      },
      "geometry": {
        "type": "Point",
        "coordinates": [
          -97.53951486611648,
          51.1301448708335
        ]
      }
    },
    {
      "type": "Feature",
      "properties": {
        "norad_id": 66908,
        "name": "1998-067XU",
        "group": "last-30-days",
        "lat": 50.97100138099682,
        "lon": -95.93249173285749,
        "alt_km": 408.27675362879836,
        "timestamp": "2025-12-08T19:31:47.637795+00:00",
        "meta_object_name": "1998-067XU",
        "meta_object_id": "1998-067XU",
        "meta_epoch": "2025-12-08T05:11:27.913056",
        "meta_mean_motion": 15.50722225,
        "meta_eccentricity": 0.00051815,
        "meta_inclination": 51.6294,
        "meta_ra_of_asc_node": 164.835,
        "meta_arg_of_pericenter": 200.0126,
        "meta_mean_anomaly": 160.0661,
        "meta_ephemeris_type": 0,
        "meta_classification_type": "U",
        "meta_norad_cat_id": 66908,
        "meta_element_set_no": 999,
        "meta_rev_at_epoch": 91,
        "meta_bstar": 0.001021887,
        "meta_mean_motion_dot": 0.00059851,
        "meta_mean_motion_ddot": 0,
        "tle_line1": "1 66908U 98067XU  25342.21629529  .00059851  00000+0  10219-2 0  9993",
        "tle_line2": "2 66908  51.6294 164.8350 0005181 200.0126 160.0661 15.50722225   912"
      },
      "geometry": {
        "type": "Point",
        "coordinates": [
          -95.93249173285749,
          50.97100138099682
        ]
      }
    },
    {
      "type": "Feature",
      "properties": {
        "norad_id": 66909,
        "name": "SILVERSAT",
        "group": "last-30-days",
        "lat": 50.84224461781681,
        "lon": -94.77370978182455,
        "alt_km": 407.95077963802305,
        "timestamp": "2025-12-08T19:31:47.637804+00:00",
        "meta_object_name": "SILVERSAT",
        "meta_object_id": "1998-067XV",
        "meta_epoch": "2025-12-07T19:54:33.887232",
        "meta_mean_motion": 15.50747382,
        "meta_eccentricity": 0.00050921,
        "meta_inclination": 51.6296,
        "meta_ra_of_asc_node": 166.752,
        "meta_arg_of_pericenter": 199.8533,
        "meta_mean_anomaly": 160.2258,
        "meta_ephemeris_type": 0,
        "meta_classification_type": "U",
        "meta_norad_cat_id": 66909,
        "meta_element_set_no": 999,
        "meta_rev_at_epoch": 85,
        "meta_bstar": 0.0014852493,
        "meta_mean_motion_dot": 0.00087585,
        "meta_mean_motion_ddot": 0,
        "tle_line1": "1 66909U 98067XV  25341.82955888  .00087585  00000+0  14852-2 0  9992",
        "tle_line2": "2 66909  51.6296 166.7520 0005092 199.8533 160.2258 15.50747382   851"
      },
      "geometry": {
        "type": "Point",
        "coordinates": [
          -94.77370978182455,
          50.84224461781681
        ]
      }
    }
  ]
}